start=new Date('2022-05-11T00:00:00.000Z').valueOf();
sats=[{"EPHEMERIS_TYPE":"0","REV_AT_EPOCH":"359","OBJECT_NAME":"STARLINK-3075","LAUNCH_DATE":"2021-11-13","RA_OF_ASC_NODE":"29.2166","INCLINATION":"53.2174","BSTAR":"-0.00184170000000","ECCENTRICITY":"0.00020470","FILE":"3439673","MEAN_MOTION":"15.08843431","EPOCH":"2022-05-10T18:00:00.999648","REF_FRAME":"TEME","GP_ID":"203230020","ARG_OF_PERICENTER":"49.6107","CENTER_NAME":"EARTH","MEAN_MOTION_DOT":"-0.00029483","MEAN_ELEMENT_THEORY":"SGP4","OBJECT_TYPE":"PAYLOAD","OBJECT_ID":"2021-104B","CLASSIFICATION_TYPE":"U","PERIOD":"95.437","NORAD_CAT_ID":"49409","SEMIMAJOR_AXIS":"6917.870","TLE_LINE1":"1 49409U 21104B   22130.75001157 -.00029483  00000-0 -18417-2 0  9999","DECAY_DATE":null,"APOAPSIS":"541.151","ELEMENT_SET_NO":"999","MEAN_ANOMALY":"24.9120","RCS_SIZE":"LARGE","MEAN_MOTION_DDOT":"0.0000000000000","PERIAPSIS":"538.319","SITE":"AFETR","COUNTRY_CODE":"US","TLE_LINE2":"2 49409  53.2174  29.2166 0002047  49.6107  24.9120 15.08843431  3598","TIME_SYSTEM":"UTC"},{"ARG_OF_PERICENTER":"37.1493","GP_ID":"203228769","REF_FRAME":"TEME","EPOCH":"2022-05-10T18:00:00.999648","MEAN_MOTION":"15.08844911","FILE":"3439673","CLASSIFICATION_TYPE":"U","MEAN_ELEMENT_THEORY":"SGP4","OBJECT_TYPE":"PAYLOAD","OBJECT_ID":"2021-104C","MEAN_MOTION_DOT":"-0.00021998","CENTER_NAME":"EARTH","INCLINATION":"53.2184","LAUNCH_DATE":"2021-11-13","RA_OF_ASC_NODE":"29.2162","OBJECT_NAME":"STARLINK-3147","REV_AT_EPOCH":"358","EPHEMERIS_TYPE":"0","ECCENTRICITY":"0.00023850","BSTAR":"-0.00136800000000","PERIAPSIS":"538.080","MEAN_MOTION_DDOT":"0.0000000000000","RCS_SIZE":"LARGE","TIME_SYSTEM":"UTC","TLE_LINE2":"2 49410  53.2184  29.2162 0002385  37.1493  77.3536 15.08844911  3588","COUNTRY_CODE":"US","SITE":"AFETR","DECAY_DATE":null,"SEMIMAJOR_AXIS":"6917.865","TLE_LINE1":"1 49410U 21104C   22130.75001157 -.00021998  00000-0 -13680-2 0  9991","PERIOD":"95.437","NORAD_CAT_ID":"49410","MEAN_ANOMALY":"77.3536","ELEMENT_SET_NO":"999","APOAPSIS":"541.380"},{"CENTER_NAME":"EARTH","CLASSIFICATION_TYPE":"U","OBJECT_TYPE":"PAYLOAD","OBJECT_ID":"2021-104D","MEAN_ELEMENT_THEORY":"SGP4","MEAN_MOTION_DOT":"-0.00004114","GP_ID":"203229019","REF_FRAME":"TEME","MEAN_MOTION":"15.08850662","EPOCH":"2022-05-10T20:31:12.370656","FILE":"3439673","ARG_OF_PERICENTER":"41.6460","BSTAR":"-0.00024043000000","ECCENTRICITY":"0.00019990","OBJECT_NAME":"STARLINK-3162","LAUNCH_DATE":"2021-11-13","RA_OF_ASC_NODE":"18.7385","REV_AT_EPOCH":"2759","EPHEMERIS_TYPE":"0","INCLINATION":"53.2189","COUNTRY_CODE":"US","SITE":"AFETR","TLE_LINE2":"2 49411  53.2189  18.7385 0001999  41.6460 318.4684 15.08850662 27598","TIME_SYSTEM":"UTC","RCS_SIZE":"LARGE","MEAN_MOTION_DDOT":"0.0000000000000","PERIAPSIS":"538.330","ELEMENT_SET_NO":"999","APOAPSIS":"541.096","MEAN_ANOMALY":"318.4684","DECAY_DATE":null,"SEMIMAJOR_AXIS":"6917.848","TLE_LINE1":"1 49411U 21104D   22130.85500429 -.00004114  00000-0 -24043-3 0  9996","PERIOD":"95.437","NORAD_CAT_ID":"49411"},{"BSTAR":"-0.00103420000000","ECCENTRICITY":"0.00022550","REV_AT_EPOCH":"358","EPHEMERIS_TYPE":"0","RA_OF_ASC_NODE":"29.2149","LAUNCH_DATE":"2021-11-13","OBJECT_NAME":"STARLINK-3144","INCLINATION":"53.2182","CENTER_NAME":"EARTH","MEAN_MOTION_DOT":"-0.00016708","CLASSIFICATION_TYPE":"U","OBJECT_TYPE":"PAYLOAD","OBJECT_ID":"2021-104E","MEAN_ELEMENT_THEORY":"SGP4","EPOCH":"2022-05-10T18:00:00.999648","MEAN_MOTION":"15.08835647","FILE":"3439673","GP_ID":"203229771","REF_FRAME":"TEME","ARG_OF_PERICENTER":"38.6961","APOAPSIS":"541.319","ELEMENT_SET_NO":"999","MEAN_ANOMALY":"55.8344","SEMIMAJOR_AXIS":"6917.894","TLE_LINE1":"1 49412U 21104E   22130.75001157 -.00016708  00000-0 -10342-2 0  9998","PERIOD":"95.438","NORAD_CAT_ID":"49412","DECAY_DATE":null,"COUNTRY_CODE":"US","SITE":"AFETR","TIME_SYSTEM":"UTC","TLE_LINE2":"2 49412  53.2182  29.2149 0002255  38.6961  55.8344 15.08835647  3589","RCS_SIZE":"LARGE","PERIAPSIS":"538.199","MEAN_MOTION_DDOT":"0.0000000000000"},{"COUNTRY_CODE":"US","SITE":"AFETR","TLE_LINE2":"2 49413  53.2178  18.7637 0002071  37.7896 322.3242 15.08834927 27599","TIME_SYSTEM":"UTC","RCS_SIZE":"LARGE","PERIAPSIS":"538.328","MEAN_MOTION_DDOT":"0.0000000000000","APOAPSIS":"541.194","ELEMENT_SET_NO":"999","MEAN_ANOMALY":"322.3242","DECAY_DATE":null,"TLE_LINE1":"1 49413U 21104F   22130.85132171  .00000061  00000-0  21923-4 0  9993","SEMIMAJOR_AXIS":"6917.896","PERIOD":"95.438","NORAD_CAT_ID":"49413","CENTER_NAME":"EARTH","CLASSIFICATION_TYPE":"U","MEAN_ELEMENT_THEORY":"SGP4","OBJECT_TYPE":"PAYLOAD","OBJECT_ID":"2021-104F","MEAN_MOTION_DOT":"0.00000061","GP_ID":"203229521","REF_FRAME":"TEME","MEAN_MOTION":"15.08834927","EPOCH":"2022-05-10T20:25:54.195744","FILE":"3439673","ARG_OF_PERICENTER":"37.7896","BSTAR":"0.00002192300000","ECCENTRICITY":"0.00020710","LAUNCH_DATE":"2021-11-13","RA_OF_ASC_NODE":"18.7637","OBJECT_NAME":"STARLINK-3157","REV_AT_EPOCH":"2759","EPHEMERIS_TYPE":"0","INCLINATION":"53.2178"},{"SITE":"AFETR","COUNTRY_CODE":"US","TIME_SYSTEM":"UTC","TLE_LINE2":"2 49414  53.2171  29.2084 0002065  38.3914  96.1272 15.08831961  3584","RCS_SIZE":"LARGE","MEAN_MOTION_DDOT":"0.0000000000000","PERIAPSIS":"538.341","ELEMENT_SET_NO":"999","APOAPSIS":"541.199","MEAN_ANOMALY":"96.1272","DECAY_DATE":null,"PERIOD":"95.438","NORAD_CAT_ID":"49414","SEMIMAJOR_AXIS":"6917.905","TLE_LINE1":"1 49414U 21104G   22130.75001157  .00014391  00000-0  92062-3 0  9994","CENTER_NAME":"EARTH","MEAN_ELEMENT_THEORY":"SGP4","OBJECT_TYPE":"PAYLOAD","OBJECT_ID":"2021-104G","CLASSIFICATION_TYPE":"U","MEAN_MOTION_DOT":"0.00014391","REF_FRAME":"TEME","GP_ID":"203228270","FILE":"3439673","MEAN_MOTION":"15.08831961","EPOCH":"2022-05-10T18:00:00.999648","ARG_OF_PERICENTER":"38.3914","BSTAR":"0.00092062000000","ECCENTRICITY":"0.00020650","LAUNCH_DATE":"2021-11-13","RA_OF_ASC_NODE":"29.2084","OBJECT_NAME":"STARLINK-3146","EPHEMERIS_TYPE":"0","REV_AT_EPOCH":"358","INCLINATION":"53.2171"},{"INCLINATION":"53.2177","REV_AT_EPOCH":"2758","EPHEMERIS_TYPE":"0","LAUNCH_DATE":"2021-11-13","RA_OF_ASC_NODE":"18.7794","OBJECT_NAME":"STARLINK-3159","ECCENTRICITY":"0.00023970","BSTAR":"0.00007213600000","ARG_OF_PERICENTER":"35.5822","MEAN_MOTION":"15.08835508","EPOCH":"2022-05-10T20:20:36.381120","FILE":"3439673","GP_ID":"203228520","REF_FRAME":"TEME","MEAN_MOTION_DOT":"0.00000860","CLASSIFICATION_TYPE":"U","OBJECT_TYPE":"PAYLOAD","MEAN_ELEMENT_THEORY":"SGP4","OBJECT_ID":"2021-104H","CENTER_NAME":"EARTH","SEMIMAJOR_AXIS":"6917.894","TLE_LINE1":"1 49415U 21104H   22130.84764330  .00000860  00000-0  72136-4 0  9991","PERIOD":"95.438","NORAD_CAT_ID":"49415","DECAY_DATE":null,"MEAN_ANOMALY":"324.5329","ELEMENT_SET_NO":"999","APOAPSIS":"541.417","PERIAPSIS":"538.101","MEAN_MOTION_DDOT":"0.0000000000000","RCS_SIZE":"LARGE","TLE_LINE2":"2 49415  53.2177  18.7794 0002397  35.5822 324.5329 15.08835508 27585","TIME_SYSTEM":"UTC","COUNTRY_CODE":"US","SITE":"AFETR"},{"ARG_OF_PERICENTER":"35.6516","FILE":"3439673","MEAN_MOTION":"15.08839975","EPOCH":"2022-05-10T18:00:00.999648","REF_FRAME":"TEME","GP_ID":"203229272","MEAN_MOTION_DOT":"-0.00029452","MEAN_ELEMENT_THEORY":"SGP4","OBJECT_TYPE":"PAYLOAD","OBJECT_ID":"2021-104J","CLASSIFICATION_TYPE":"U","CENTER_NAME":"EARTH","INCLINATION":"53.2169","EPHEMERIS_TYPE":"0","REV_AT_EPOCH":"358","LAUNCH_DATE":"2021-11-13","OBJECT_NAME":"STARLINK-3133","RA_OF_ASC_NODE":"29.1998","ECCENTRICITY":"0.00023630","BSTAR":"-0.00183990000000","MEAN_MOTION_DDOT":"0.0000000000000","PERIAPSIS":"538.111","RCS_SIZE":"LARGE","TIME_SYSTEM":"UTC","TLE_LINE2":"2 49416  53.2169  29.1998 0002363  35.6516 138.8772 15.08839975  3587","SITE":"AFETR","COUNTRY_CODE":"US","PERIOD":"95.438","NORAD_CAT_ID":"49416","TLE_LINE1":"1 49416U 21104J   22130.75001157 -.00029452  00000-0 -18399-2 0  9992","SEMIMAJOR_AXIS":"6917.880","DECAY_DATE":null,"MEAN_ANOMALY":"138.8772","APOAPSIS":"541.380","ELEMENT_SET_NO":"999"},{"CLASSIFICATION_TYPE":"U","OBJECT_TYPE":"PAYLOAD","MEAN_ELEMENT_THEORY":"SGP4","OBJECT_ID":"2021-104K","MEAN_MOTION_DOT":"0.00000680","CENTER_NAME":"EARTH","ARG_OF_PERICENTER":"43.7719","GP_ID":"203200731","REF_FRAME":"TEME","MEAN_MOTION":"15.08837475","EPOCH":"2022-05-10T21:50:41.107200","FILE":"3439479","ECCENTRICITY":"0.00023420","BSTAR":"0.00006085300000","INCLINATION":"53.2183","OBJECT_NAME":"STARLINK-3154","LAUNCH_DATE":"2021-11-13","RA_OF_ASC_NODE":"18.4920","REV_AT_EPOCH":"2870","EPHEMERIS_TYPE":"0","TIME_SYSTEM":"UTC","TLE_LINE2":"2 49417  53.2183  18.4920 0002342  43.7719 316.3459 15.08837475 28701","COUNTRY_CODE":"US","SITE":"AFETR","PERIAPSIS":"538.133","MEAN_MOTION_DDOT":"0.0000000000000","RCS_SIZE":"LARGE","MEAN_ANOMALY":"316.3459","APOAPSIS":"541.373","ELEMENT_SET_NO":"999","DECAY_DATE":null,"SEMIMAJOR_AXIS":"6917.888","TLE_LINE1":"1 49417U 21104K   22130.91019800  .00000680  00000-0  60853-4 0  9999","PERIOD":"95.438","NORAD_CAT_ID":"49417"},{"SITE":"AFETR","COUNTRY_CODE":"US","TIME_SYSTEM":"UTC","TLE_LINE2":"2 49418  53.2182  29.2032 0002340  37.7133 156.7942 15.08849120  3588","RCS_SIZE":"LARGE","PERIAPSIS":"538.099","MEAN_MOTION_DDOT":"0.0000000000000","APOAPSIS":"541.336","ELEMENT_SET_NO":"999","MEAN_ANOMALY":"156.7942","PERIOD":"95.437","NORAD_CAT_ID":"49418","SEMIMAJOR_AXIS":"6917.853","TLE_LINE1":"1 49418U 21104L   22130.75001157 -.00020623  00000-0 -12810-2 0  9997","DECAY_DATE":null,"CENTER_NAME":"EARTH","MEAN_MOTION_DOT":"-0.00020623","OBJECT_TYPE":"PAYLOAD","OBJECT_ID":"2021-104L","MEAN_ELEMENT_THEORY":"SGP4","CLASSIFICATION_TYPE":"U","FILE":"3439673","MEAN_MOTION":"15.08849120","EPOCH":"2022-05-10T18:00:00.999648","REF_FRAME":"TEME","GP_ID":"203228770","ARG_OF_PERICENTER":"37.7133","BSTAR":"-0.00128100000000","ECCENTRICITY":"0.00023400","EPHEMERIS_TYPE":"0","REV_AT_EPOCH":"358","OBJECT_NAME":"STARLINK-3111","LAUNCH_DATE":"2021-11-13","RA_OF_ASC_NODE":"29.2032","INCLINATION":"53.2182"}];
